STARLINK-30716          
1 57936U 23148B   26068.26184277 -.00000498  00000+0 -46818-5 0  9991
2 57936  53.1622  26.4173 0001251 100.2139 259.9003 15.30191740138358
TEVEL2-2                
1 63219U 25052K   26068.64848259  .00020339  00000+0  69428-3 0  9991
2 63219  97.3987 324.7700 0004693 105.7930 254.3828 15.30343745 54855
